{
  "type": "FeatureCollection",
  "features": [
    {
      "type": "Feature",
      "properties": {
        "norad_id": 66174,
        "name": "HTV-X1",
        "group": "stations",
        "lat": -14.670098229441331,
        "lon": -15.48324759769911,
        "alt_km": 418.711418204407,
        "timestamp": "2025-12-10T16:57:10.431997+00:00",
        "meta_object_name": "HTV-X1",
        "meta_object_id": "2025-241A",
        "meta_epoch": "2025-12-10T03:42:55.481184",
        "meta_mean_motion": 15.49465664,
        "meta_eccentricity": 0.0003395,
        "meta_inclination": 51.6306,
        "meta_ra_of_asc_node": 155.2782,
        "meta_arg_of_pericenter": 228.7876,
        "meta_mean_anomaly": 131.282,
        "meta_ephemeris_type": 0,
        "meta_classification_type": "U",
        "meta_norad_cat_id": 66174,
        "meta_element_set_no": 999,
        "meta_rev_at_epoch": 51,
        "meta_bstar": 0.00027248017,
        "meta_mean_motion_dot": 0.00014837,
        "meta_mean_motion_ddot": 0,
        "tle_line1": "1 66174U 25241A   25344.15480881  .00014837  00000+0  27248-3 0  9999",
        "tle_line2": "2 66174  51.6306 155.2782 0003395 228.7876 131.2820 15.49465664   510"
      },
      "geometry": {
        "type": "Point",
        "coordinates": [
          -15.48324759769911,
          -14.670098229441331
        ]
      }
    },
    {
      "type": "Feature",
      "properties": {
        "norad_id": 66515,
        "name": "SZ-21 MODULE",
        "group": "stations",
        "lat": 36.018355810630325,
        "lon": 153.0606326597824,
        "alt_km": 377.8750427784089,
        "timestamp": "2025-12-10T16:57:10.432007+00:00",
        "meta_object_name": "SZ-21 MODULE",
        "meta_object_id": "2025-246C",
        "meta_epoch": "2025-12-10T11:51:01.003104",
        "meta_mean_motion": 15.62311534,
        "meta_eccentricity": 0.0006278,
        "meta_inclination": 41.4772,
        "meta_ra_of_asc_node": 29.7454,
        "meta_arg_of_pericenter": 248.1298,
        "meta_mean_anomaly": 111.8874,
        "meta_ephemeris_type": 0,
        "meta_classification_type": "U",
        "meta_norad_cat_id": 66515,
        "meta_element_set_no": 999,
        "meta_rev_at_epoch": 409,
        "meta_bstar": 0.00039111,
        "meta_mean_motion_dot": 0.00035412,
        "meta_mean_motion_ddot": 0,
        "tle_line1": "1 66515U 25246C   25344.49376161  .00035412  00000+0  39111-3 0  9999",
        "tle_line2": "2 66515  41.4772  29.7454 0006278 248.1298 111.8874 15.62311534  4092"
      },
      "geometry": {
        "type": "Point",
        "coordinates": [
          153.0606326597824,
          36.018355810630325
        ]
      }
    },
    {
      "type": "Feature",
      "properties": {
        "norad_id": 66645,
        "name": "SHENZHOU-22",
        "group": "stations",
        "lat": -32.027388592237365,
        "lon": -105.85007560576014,
        "alt_km": 397.6559582636237,
        "timestamp": "2025-12-10T16:57:10.432017+00:00",
        "meta_object_name": "SHENZHOU-22",
        "meta_object_id": "2025-272A",
        "meta_epoch": "2025-12-10T06:43:57.761760",
        "meta_mean_motion": 15.59014677,
        "meta_eccentricity": 0.00088021,
        "meta_inclination": 41.4682,
        "meta_ra_of_asc_node": 31.6356,
        "meta_arg_of_pericenter": 10.5172,
        "meta_mean_anomaly": 349.5849,
        "meta_ephemeris_type": 0,
        "meta_classification_type": "U",
        "meta_norad_cat_id": 66645,
        "meta_element_set_no": 999,
        "meta_rev_at_epoch": 26357,
        "meta_bstar": 0.00043406543,
        "meta_mean_motion_dot": 0.00034646,
        "meta_mean_motion_ddot": 0,
        "tle_line1": "1 66645U 25272A   25344.28052965  .00034646  00000+0  43407-3 0  9993",
        "tle_line2": "2 66645  41.4682  31.6356 0008802  10.5172 349.5849 15.59014677263572"
      },
      "geometry": {
        "type": "Point",
        "coordinates": [
          -105.85007560576014,
          -32.027388592237365
        ]
      }
    },
    {
      "type": "Feature",
      "properties": {
        "norad_id": 66664,
        "name": "SOYUZ-MS 28",
        "group": "stations",
        "lat": -14.670031948397328,
        "lon": -15.4833047713817,
        "alt_km": 418.7114840111326,
        "timestamp": "2025-12-10T16:57:10.432027+00:00",
        "meta_object_name": "SOYUZ-MS 28",
        "meta_object_id": "2025-275A",
        "meta_epoch": "2025-12-10T03:42:55.481184",
        "meta_mean_motion": 15.4946563,
        "meta_eccentricity": 0.0003395,
        "meta_inclination": 51.6306,
        "meta_ra_of_asc_node": 155.2782,
        "meta_arg_of_pericenter": 228.7831,
        "meta_mean_anomaly": 131.2865,
        "meta_ephemeris_type": 0,
        "meta_classification_type": "U",
        "meta_norad_cat_id": 66664,
        "meta_element_set_no": 999,
        "meta_rev_at_epoch": 204,
        "meta_bstar": 0.0002721,
        "meta_mean_motion_dot": 0.00014816,
        "meta_mean_motion_ddot": 0,
        "tle_line1": "1 66664U 25275A   25344.15480881  .00014816  00000+0  27210-3 0  9996",
        "tle_line2": "2 66664  51.6306 155.2782 0003395 228.7831 131.2865 15.49465630  2047"
      },
      "geometry": {
        "type": "Point",
        "coordinates": [
          -15.4833047713817,
          -14.670031948397328
        ]
      }
    },
    {
      "type": "Feature",
      "properties": {
        "norad_id": 66906,
        "name": "1998-067XS",
        "group": "stations",
        "lat": -31.135886042671487,
        "lon": 1.0953918945762187,
        "alt_km": 416.95149451930774,
        "timestamp": "2025-12-10T16:57:10.432037+00:00",
        "meta_object_name": "1998-067XS",
        "meta_object_id": "1998-067XS",
        "meta_epoch": "2025-12-10T00:31:58.659744",
        "meta_mean_motion": 15.50350034,
        "meta_eccentricity": 0.0003912,
        "meta_inclination": 51.6303,
        "meta_ra_of_asc_node": 155.8936,
        "meta_arg_of_pericenter": 190.7132,
        "meta_mean_anomaly": 169.3774,
        "meta_ephemeris_type": 0,
        "meta_classification_type": "U",
        "meta_norad_cat_id": 66906,
        "meta_element_set_no": 999,
        "meta_rev_at_epoch": 119,
        "meta_bstar": 0.00063423893,
        "meta_mean_motion_dot": 0.00036365,
        "meta_mean_motion_ddot": 0,
        "tle_line1": "1 66906U 98067XS  25344.02220671  .00036365  00000+0  63424-3 0  9999",
        "tle_line2": "2 66906  51.6303 155.8936 0003912 190.7132 169.3774 15.50350034  1196"
      },
      "geometry": {
        "type": "Point",
        "coordinates": [
          1.0953918945762187,
          -31.135886042671487
        ]
      }
    },
    {
      "type": "Feature",
      "properties": {
        "norad_id": 66907,
        "name": "1998-067XT",
        "group": "stations",
        "lat": -37.375191999002446,
        "lon": 9.723136853593122,
        "alt_km": 414.6531268513372,
        "timestamp": "2025-12-10T16:57:10.432047+00:00",
        "meta_object_name": "1998-067XT",
        "meta_object_id": "1998-067XT",
        "meta_epoch": "2025-12-09T12:07:37.114752",
        "meta_mean_motion": 15.50864429,
        "meta_eccentricity": 0.00048036,
        "meta_inclination": 51.6307,
        "meta_ra_of_asc_node": 158.4423,
        "meta_arg_of_pericenter": 208.5081,
        "meta_mean_anomaly": 151.5646,
        "meta_ephemeris_type": 0,
        "meta_classification_type": "U",
        "meta_norad_cat_id": 66907,
        "meta_element_set_no": 999,
        "meta_rev_at_epoch": 111,
        "meta_bstar": 0.0012921241,
        "meta_mean_motion_dot": 0.00076342,
        "meta_mean_motion_ddot": 0,
        "tle_line1": "1 66907U 98067XT  25343.50529068  .00076342  00000+0  12921-2 0  9998",
        "tle_line2": "2 66907  51.6307 158.4423 0004803 208.5081 151.5646 15.50864429  1113"
      },
      "geometry": {
        "type": "Point",
        "coordinates": [
          9.723136853593122,
          -37.375191999002446
        ]
      }
    },
    {
      "type": "Feature",
      "properties": {
        "norad_id": 66908,
        "name": "1998-067XU",
        "group": "stations",
        "lat": -38.22766620412716,
        "lon": 11.094359323844747,
        "alt_km": 414.4840193908176,
        "timestamp": "2025-12-10T16:57:10.432057+00:00",
        "meta_object_name": "1998-067XU",
        "meta_object_id": "1998-067XU",
        "meta_epoch": "2025-12-10T11:19:03.672192",
        "meta_mean_motion": 15.51078724,
        "meta_eccentricity": 0.0004812,
        "meta_inclination": 51.6304,
        "meta_ra_of_asc_node": 153.6446,
        "meta_arg_of_pericenter": 212.6459,
        "meta_mean_anomaly": 147.4233,
        "meta_ephemeris_type": 0,
        "meta_classification_type": "U",
        "meta_norad_cat_id": 66908,
        "meta_element_set_no": 999,
        "meta_rev_at_epoch": 126,
        "meta_bstar": 0.001489,
        "meta_mean_motion_dot": 0.00088864,
        "meta_mean_motion_ddot": 0,
        "tle_line1": "1 66908U 98067XU  25344.47157028  .00088864  00000+0  14890-2 0  9998",
        "tle_line2": "2 66908  51.6304 153.6446 0004812 212.6459 147.4233 15.51078724  1266"
      },
      "geometry": {
        "type": "Point",
        "coordinates": [
          11.094359323844747,
          -38.22766620412716
        ]
      }
    }
  ]
}